0 FENGYUN 1C DEB
1 29937U 99025JK  13281.46454668 -.00000024  00000-0  13174-4 0   665
2 29937 099.1112 271.7247 0033013 141.6966 009.9021 14.03662438345255
0 FENGYUN 1C DEB
1 29937U 99025JK  13283.81067426  .00000133  00000-0  11240-3 0   670
2 29937 099.1111 274.0755 0033026 135.5219 345.0009 14.03661544345584
0 FENGYUN 1C DEB
1 29937U 99025JK  13285.86652240  .00000252  00000-0  18804-3 0   687
2 29937 099.1112 276.1353 0033031 130.0486 293.3604 14.03661236345870
0 FENGYUN 1C DEB
1 29937U 99025JK  13287.93332503  .00000381  00000-0  26992-3 0   695
2 29937 099.1116 278.2058 0033051 124.4872 297.1321 14.03662010346169
0 FENGYUN 1C DEB
1 29937U 99025JK  13290.44630843  .00000407  00000-0  28590-3 0   700
2 29937 099.1124 280.7232 0033077 117.7043 035.5300 14.03663897346517
0 FENGYUN 1C DEB
1 29937U 99025JK  13292.79260566  .00000348  00000-0  24859-3 0   710
2 29937 099.1131 283.0739 0033122 111.3188 011.7082 14.03666076346845
0 FENGYUN 1C DEB
1 29937U 99025JK  13294.85865983  .00000248  00000-0  18539-3 0   721
2 29937 099.1134 285.1441 0033167 105.6925 011.7942 14.03668457347138
